CCSDS_OMM_VERS = 2.0
CREATION_DATE  = 
ORIGINATOR     = 

OBJECT_NAME    = SILVERSAT
OBJECT_ID      = 1998-067XV
CENTER_NAME    = EARTH
REF_FRAME      = TEME
TIME_SYSTEM    = UTC
MEAN_ELEMENT_THEORY = SGP/SGP4

EPOCH          = 2026-02-28T10:02:18.582432
MEAN_MOTION    = 15.68557726
ECCENTRICITY   = .0005284
INCLINATION    = 51.6261
RA_OF_ASC_NODE = 112.2393
ARG_OF_PERICENTER = 23.9659
MEAN_ANOMALY   = 336.1582

EPHEMERIS_TYPE = 0
CLASSIFICATION_TYPE = U
NORAD_CAT_ID   = 66909
ELEMENT_SET_NO = 999
REV_AT_EPOCH   = 1373
BSTAR          = .12266E-2
MEAN_MOTION_DOT = .143913E-2
MEAN_MOTION_DDOT = 0

CCSDS_OMM_VERS = 2.0
CREATION_DATE  = 
ORIGINATOR     = 

OBJECT_NAME    = ISS OBJECT XW
OBJECT_ID      = 1998-067XW
CENTER_NAME    = EARTH
REF_FRAME      = TEME
TIME_SYSTEM    = UTC
MEAN_ELEMENT_THEORY = SGP/SGP4

EPOCH          = 2026-02-28T09:29:02.345856
MEAN_MOTION    = 15.65886281
ECCENTRICITY   = .0004696
INCLINATION    = 51.6250
RA_OF_ASC_NODE = 112.8301
ARG_OF_PERICENTER = 36.0713
MEAN_ANOMALY   = 324.0599

EPHEMERIS_TYPE = 0
CLASSIFICATION_TYPE = U
NORAD_CAT_ID   = 66910
ELEMENT_SET_NO = 999
REV_AT_EPOCH   = 1372
BSTAR          = .10238E-2
MEAN_MOTION_DOT = .107154E-2
MEAN_MOTION_DDOT = 0

CCSDS_OMM_VERS = 2.0
CREATION_DATE  = 
ORIGINATOR     = 

OBJECT_NAME    = ISS OBJECT XX
OBJECT_ID      = 1998-067XX
CENTER_NAME    = EARTH
REF_FRAME      = TEME
TIME_SYSTEM    = UTC
MEAN_ELEMENT_THEORY = SGP/SGP4

EPOCH          = 2026-02-28T04:14:04.585344
MEAN_MOTION    = 15.70701974
ECCENTRICITY   = .00067241
INCLINATION    = 51.6224
RA_OF_ASC_NODE = 112.8607
ARG_OF_PERICENTER = 29.6509
MEAN_ANOMALY   = 330.4869

EPHEMERIS_TYPE = 0
CLASSIFICATION_TYPE = U
NORAD_CAT_ID   = 66911
ELEMENT_SET_NO = 999
REV_AT_EPOCH   = 1369
BSTAR          = .14258097E-2
MEAN_MOTION_DOT = .18393E-2
MEAN_MOTION_DDOT = 0

CCSDS_OMM_VERS = 2.0
CREATION_DATE  = 
ORIGINATOR     = 

OBJECT_NAME    = ISS OBJECT XY
OBJECT_ID      = 1998-067XY
CENTER_NAME    = EARTH
REF_FRAME      = TEME
TIME_SYSTEM    = UTC
MEAN_ELEMENT_THEORY = SGP/SGP4

EPOCH          = 2026-02-28T10:29:17.106720
MEAN_MOTION    = 15.61844218
ECCENTRICITY   = .0002598
INCLINATION    = 51.6274
RA_OF_ASC_NODE = 113.8728
ARG_OF_PERICENTER = 40.6727
MEAN_ANOMALY   = 319.4460

EPHEMERIS_TYPE = 0
CLASSIFICATION_TYPE = U
NORAD_CAT_ID   = 66912
ELEMENT_SET_NO = 999
REV_AT_EPOCH   = 1370
BSTAR          = .84275E-3
MEAN_MOTION_DOT = .74749E-3
MEAN_MOTION_DDOT = 0

CCSDS_OMM_VERS = 2.0
CREATION_DATE  = 
ORIGINATOR     = 

OBJECT_NAME    = ISS OBJECT XZ
OBJECT_ID      = 1998-067XZ
CENTER_NAME    = EARTH
REF_FRAME      = TEME
TIME_SYSTEM    = UTC
MEAN_ELEMENT_THEORY = SGP/SGP4

EPOCH          = 2026-02-28T10:50:42.432000
MEAN_MOTION    = 15.50996439
ECCENTRICITY   = .0009606
INCLINATION    = 51.6312
RA_OF_ASC_NODE = 117.7223
ARG_OF_PERICENTER = 155.1214
MEAN_ANOMALY   = 205.0240

EPHEMERIS_TYPE = 0
CLASSIFICATION_TYPE = U
NORAD_CAT_ID   = 67683
ELEMENT_SET_NO = 999
REV_AT_EPOCH   = 335
BSTAR          = .59654E-3
MEAN_MOTION_DOT = .35022E-3
MEAN_MOTION_DDOT = 0

CCSDS_OMM_VERS = 2.0
CREATION_DATE  = 
ORIGINATOR     = 

OBJECT_NAME    = GXIBA-1
OBJECT_ID      = 1998-067YA
CENTER_NAME    = EARTH
REF_FRAME      = TEME
TIME_SYSTEM    = UTC
MEAN_ELEMENT_THEORY = SGP/SGP4

EPOCH          = 2026-02-28T10:29:21.411168
MEAN_MOTION    = 15.52723154
ECCENTRICITY   = .0011076
INCLINATION    = 51.6306
RA_OF_ASC_NODE = 117.6242
ARG_OF_PERICENTER = 146.1897
MEAN_ANOMALY   = 213.9801

EPHEMERIS_TYPE = 0
CLASSIFICATION_TYPE = U
NORAD_CAT_ID   = 67684
ELEMENT_SET_NO = 999
REV_AT_EPOCH   = 335
BSTAR          = .10102E-2
MEAN_MOTION_DOT = .63733E-3
MEAN_MOTION_DDOT = 0

CCSDS_OMM_VERS = 2.0
CREATION_DATE  = 
ORIGINATOR     = 

OBJECT_NAME    = CORAL
OBJECT_ID      = 1998-067YB
CENTER_NAME    = EARTH
REF_FRAME      = TEME
TIME_SYSTEM    = UTC
MEAN_ELEMENT_THEORY = SGP/SGP4

EPOCH          = 2026-02-28T09:14:14.097696
MEAN_MOTION    = 15.51261454
ECCENTRICITY   = .0011636
INCLINATION    = 51.6317
RA_OF_ASC_NODE = 118.0257
ARG_OF_PERICENTER = 150.9862
MEAN_ANOMALY   = 209.1777

EPHEMERIS_TYPE = 0
CLASSIFICATION_TYPE = U
NORAD_CAT_ID   = 67685
ELEMENT_SET_NO = 999
REV_AT_EPOCH   = 334
BSTAR          = .66082E-3
MEAN_MOTION_DOT = .39273E-3
MEAN_MOTION_DDOT = 0

CCSDS_OMM_VERS = 2.0
CREATION_DATE  = 
ORIGINATOR     = 

OBJECT_NAME    = ISS OBJECT YC
OBJECT_ID      = 1998-067YC
CENTER_NAME    = EARTH
REF_FRAME      = TEME
TIME_SYSTEM    = UTC
MEAN_ELEMENT_THEORY = SGP/SGP4

EPOCH          = 2026-02-28T10:42:49.621824
MEAN_MOTION    = 15.51623600
ECCENTRICITY   = .0007669
INCLINATION    = 51.6314
RA_OF_ASC_NODE = 117.6872
ARG_OF_PERICENTER = 119.6428
MEAN_ANOMALY   = 240.5326

EPHEMERIS_TYPE = 0
CLASSIFICATION_TYPE = U
NORAD_CAT_ID   = 67686
ELEMENT_SET_NO = 999
REV_AT_EPOCH   = 335
BSTAR          = .77349E-3
MEAN_MOTION_DOT = .46627E-3
MEAN_MOTION_DDOT = 0

CCSDS_OMM_VERS = 2.0
CREATION_DATE  = 
ORIGINATOR     = 

OBJECT_NAME    = LEOPARD
OBJECT_ID      = 1998-067YD
CENTER_NAME    = EARTH
REF_FRAME      = TEME
TIME_SYSTEM    = UTC
MEAN_ELEMENT_THEORY = SGP/SGP4

EPOCH          = 2026-02-28T10:48:38.405664
MEAN_MOTION    = 15.51125040
ECCENTRICITY   = .000768
INCLINATION    = 51.6314
RA_OF_ASC_NODE = 117.7139
ARG_OF_PERICENTER = 123.4164
MEAN_ANOMALY   = 236.7560

EPHEMERIS_TYPE = 0
CLASSIFICATION_TYPE = U
NORAD_CAT_ID   = 67687
ELEMENT_SET_NO = 999
REV_AT_EPOCH   = 327
BSTAR          = .62541E-3
MEAN_MOTION_DOT = .36895E-3
MEAN_MOTION_DDOT = 0

CCSDS_OMM_VERS = 2.0
CREATION_DATE  = 
ORIGINATOR     = 

OBJECT_NAME    = ISS OBJECT YE
OBJECT_ID      = 1998-067YE
CENTER_NAME    = EARTH
REF_FRAME      = TEME
TIME_SYSTEM    = UTC
MEAN_ELEMENT_THEORY = SGP/SGP4

EPOCH          = 2026-02-28T10:44:38.850432
MEAN_MOTION    = 15.51456738
ECCENTRICITY   = .0007619
INCLINATION    = 51.6321
RA_OF_ASC_NODE = 117.6961
ARG_OF_PERICENTER = 120.4932
MEAN_ANOMALY   = 239.6810

EPHEMERIS_TYPE = 0
CLASSIFICATION_TYPE = U
NORAD_CAT_ID   = 67688
ELEMENT_SET_NO = 999
REV_AT_EPOCH   = 327
BSTAR          = .71844E-3
MEAN_MOTION_DOT = .42995E-3
MEAN_MOTION_DDOT = 0

CCSDS_OMM_VERS = 2.0
CREATION_DATE  = 
ORIGINATOR     = 

OBJECT_NAME    = CREW DRAGON 12
OBJECT_ID      = 2026-031A
CENTER_NAME    = EARTH
REF_FRAME      = TEME
TIME_SYSTEM    = UTC
MEAN_ELEMENT_THEORY = SGP/SGP4

EPOCH          = 2026-02-28T09:55:22.865376
MEAN_MOTION    = 15.48358440
ECCENTRICITY   = .0008299
INCLINATION    = 51.6325
RA_OF_ASC_NODE = 118.2146
ARG_OF_PERICENTER = 142.1568
MEAN_ANOMALY   = 218.0005

EPHEMERIS_TYPE = 0
CLASSIFICATION_TYPE = U
NORAD_CAT_ID   = 67796
ELEMENT_SET_NO = 999
REV_AT_EPOCH   = 55463
BSTAR          = .18003E-3
MEAN_MOTION_DOT = .927E-4
MEAN_MOTION_DDOT = 0

